[Satellite]
VERSION=1.1
NAME=SL-8 R/B
NICKNAME=SL-8 R/B
TLE1=1 25723U 99022C   19316.84443172  .00015515  00000-0  13957-3 0  9999
TLE2=2 25723  48.4109 114.4860 0006712 339.1755  20.8921 15.68297951143441
STATUS=0
